IRIDIUM 64 [+]          
1 25287U 98021C   16295.47843091  .00000024  00000-0  15826-5 0  9996
2 25287  86.3945 323.7540 0002083  91.7732 268.3702 14.34223129970787
IRIDIUM 65 [+]          
1 25288U 98021D   16295.48478524  .00000011  00000-0 -30545-5 0  9995
2 25288  86.3944 323.6591 0002350  89.6595 270.4870 14.34222732970804
IRIDIUM 66 [+]          
1 25289U 98021E   16296.55958947  .00000011  00000-0 -32125-5 0  9993
2 25289  86.3941 323.1148 0002319  91.9110  21.5064 14.34218070970955
IRIDIUM 67 [+]          
1 25290U 98021F   16296.54398604  .00000011  00000-0 -32155-5 0  9995
2 25290  86.3943 323.2542 0002258  92.1108 268.0347 14.34222793970960
IRIDIUM 68 [+]          
1 25291U 98021G   16295.50381213  .00000013  00000-0 -23121-5 0  9994
2 25291  86.3946 323.8036 0002215  91.1827 268.9622 14.34222350970782
IRIDIUM 69 [-]          
1 25319U 98026A   16296.51620038  .00000141  00000-0  39444-4 0  9998
2 25319  86.4007 345.7235 0002212  41.3591 318.7775 14.38623859968860
IRIDIUM 71 [-]          
1 25320U 98026B   16295.53162945  .00000124  00000-0  33791-4 0  9999
2 25320  86.3986 342.1428 0003983  72.0393 288.1239 14.39038010969146
IRIDIUM 70 [+]          
1 25342U 98032A   16295.55044900  .00000011  00000-0 -29943-5 0  9993
2 25342  86.3949 324.0146 0002395  91.6947  18.1383 14.34221780964894
IRIDIUM 72 [+]          
1 25343U 98032B   16296.49324682  .00000006  00000-0 -50713-5 0  9999
2 25343  86.3943 323.2475 0002194  88.1190 272.0257 14.34222614965038
IRIDIUM 73 [-]          
1 25344U 98032C   16296.51848540  .00000165  00000-0  38131-4 0  9991
2 25344  86.4388 303.3772 0002766 102.1236 258.0278 14.48979901973135
IRIDIUM 74 [S]          
1 25345U 98032D   16295.53632808  .00000021  00000-0  30861-6 0  9996
2 25345  86.4456 323.9925 0002108  89.8737  22.1735 14.42956976968332
IRIDIUM 75 [+]          
1 25346U 98032E   16295.55420209  .00000016  00000-0 -14717-5 0  9995
2 25346  86.3947 323.8844 0002263  92.2959  69.7025 14.34222719965464
IRIDIUM 3 [+]           
1 25431U 98048A   16296.57673021  .00000182  00000-0  57762-4 0  9991
2 25431  86.3991 355.0563 0002381  92.3518  26.2076 14.34220983951556
IRIDIUM 76 [+]          
1 25432U 98048B   16295.55035449  .00000177  00000-0  56092-4 0  9994
2 25432  86.3989 355.2471 0002352  97.4133  26.9939 14.34220939951399
IRIDIUM 82 [+]          
1 25467U 98051A   16295.49550398 -.00000131  00000-0 -53777-4 0  9993
2 25467  86.3907 121.9753 0001830  75.2348 284.9051 14.34216355952401
IRIDIUM 81 [+]          
1 25468U 98051B   16295.48917671 -.00000026  00000-0 -16259-4 0  9991
2 25468  86.3933 121.5881 0001901  86.8182 273.3231 14.34217393948626
IRIDIUM 80 [+]          
1 25469U 98051C   16296.52673402 -.00000030  00000-0 -17733-4 0  9992
2 25469  86.3936 121.4298 0001820  88.2036 323.8485 14.34217434948779
IRIDIUM 77 [+]          
1 25471U 98051E   16295.48754240 -.00000023  00000-0 -15285-4 0  9991
2 25471  86.3928 121.4560 0002025  85.7348 331.4315 14.34217637953825
IRIDIUM 2 [-]           
1 25527U 98066A   16295.46907520  .00001952  00000-0  10029-3 0  9998
2 25527  85.5334 173.0785 0007167 242.5881 117.4630 15.15814084981707
IRIDIUM 86 [+]          
1 25528U 98066B   16296.48166390 -.00000021  00000-0 -14485-4 0  9993
2 25528  86.3925  89.1958 0002124  85.9965 274.1473 14.34214517945297
IRIDIUM 84 [+]          
1 25530U 98066D   16296.51337099 -.00000030  00000-0 -17736-4 0  9998
2 25530  86.3926  89.3435 0001989  90.7050 269.4373 14.34217983942934
IRIDIUM 83 [+]          
1 25531U 98066E   16295.49855232 -.00000013  00000-0 -11665-4 0  9995
2 25531  86.3929  89.8839 0001915  89.7456 270.3959 14.34214960940142
IRIDIUM 20 [+]          
1 25577U 98074A   16296.53472278  .00000184  00000-0  58754-4 0  9992
2 25577  86.3986 354.7603 0002281  93.5762 266.5694 14.34220596934371
IRIDIUM 11 [+]          
1 25578U 98074B   16296.57045132  .00000013  00000-0 -25711-5 0  9992
2 25578  86.3985 354.9491 0002195  93.0211  25.9279 14.34221057943342
IRIDIUM 14 [+]          
1 25777U 99032A   16295.49388589  .00000012  00000-0 -28273-5 0  9999
2 25777  86.3946 323.7434 0002383  90.1391  22.4353 14.34222400920463
IRIDIUM 21 [+]          
1 25778U 99032B   16295.51014598  .00000015  00000-0 -15581-5 0  9990
2 25778  86.3945 323.7585 0002232  95.8417 264.3033 14.34222949913905
IRIDIUM 91 [+]          
1 27372U 02005A   16296.39460704  .00000216  00000-0  70127-4 0  9995
2 27372  86.4018  27.2309 0001993  93.6705 310.3835 14.34224451777548
IRIDIUM 90 [S]          
1 27373U 02005B   16295.49988760  .00000031  00000-0  31009-5 0  9995
2 27373  86.4440  89.8583 0002240  93.2647 266.8810 14.42947224776932
IRIDIUM 94 [+]          
1 27374U 02005C   16295.25293383  .00000194  00000-0  62201-4 0  9997
2 27374  86.3988 355.6237 0003011 102.6846 319.8189 14.34222892781709
IRIDIUM 95 [+]          
1 27375U 02005D   16296.35432306  .00000221  00000-0  71871-4 0  9994
2 27375  86.4016  27.0291 0002274  98.0133 262.1321 14.34226817776826
IRIDIUM 96 [+]          
1 27376U 02005E   16295.42545218  .00000169  00000-0  53390-4 0  9996
2 27376  86.4001  58.9446 0002287 132.1602 227.9788 14.34218721781895
IRIDIUM 97 [+]          
1 27450U 02031A   16296.44029491  .00000171  00000-0  54102-4 0  9996
2 27450  86.3972  58.2837 0001911  94.3665 265.7749 14.34223652756159
IRIDIUM 98 [+]          
1 27451U 02031B   16296.50820376 -.00000034  00000-0 -19043-4 0  9990
2 27451  86.3928 121.6017 0001820  84.7772 329.8305 14.34217328757230
